start=new Date('2021-11-08T00:00:00.000Z').valueOf();
sats=[{"LAUNCH_DATE":"2020-08-07","EPHEMERIS_TYPE":"0","ARG_OF_PERICENTER":"69.5379","REF_FRAME":"TEME","CLASSIFICATION_TYPE":"U","DECAY_DATE":null,"SEMIMAJOR_AXIS":"6925.427","MEAN_ELEMENT_THEORY":"SGP4","TLE_LINE1":"1 46033U 20055G   21311.63273497  .00016260  00000-0  11087-2 0  9991","SITE":"AFETR","ECCENTRICITY":"0.00012210","TLE_LINE2":"2 46033  53.0548  33.2397 0001221  69.5379 290.5741 15.06374248 70268","MEAN_MOTION":"15.06374248","COUNTRY_CODE":"US","PERIAPSIS":"546.447","TIME_SYSTEM":"UTC","ELEMENT_SET_NO":"999","GP_ID":"189213240","NORAD_CAT_ID":"46033","RA_OF_ASC_NODE":"33.2397","FILE":"3207836","OBJECT_NAME":"STARLINK-1556","INCLINATION":"53.0548","CENTER_NAME":"EARTH","MEAN_MOTION_DDOT":"0.0000000000000","EPOCH":"2021-11-07T15:11:08.301408","BSTAR":"0.00110870000000","OBJECT_TYPE":"PAYLOAD","MEAN_ANOMALY":"290.5741","APOAPSIS":"548.138","PERIOD":"95.594","REV_AT_EPOCH":"7026","RCS_SIZE":"LARGE","MEAN_MOTION_DOT":"0.00016260","OBJECT_ID":"2020-055G"},{"TIME_SYSTEM":"UTC","ELEMENT_SET_NO":"999","GP_ID":"189213490","NORAD_CAT_ID":"46034","RA_OF_ASC_NODE":"32.9352","FILE":"3207836","OBJECT_NAME":"STARLINK-1557","INCLINATION":"53.0549","TLE_LINE2":"2 46034  53.0549  32.9352 0001514  85.1060 275.0102 15.06379446 70278","MEAN_MOTION":"15.06379446","COUNTRY_CODE":"US","PERIAPSIS":"546.228","PERIOD":"95.593","REV_AT_EPOCH":"7027","RCS_SIZE":"LARGE","MEAN_MOTION_DOT":"0.00021706","OBJECT_ID":"2020-055H","MEAN_MOTION_DDOT":"0.0000000000000","CENTER_NAME":"EARTH","EPOCH":"2021-11-07T16:52:00.846048","BSTAR":"0.00147240000000","OBJECT_TYPE":"PAYLOAD","MEAN_ANOMALY":"275.0102","APOAPSIS":"548.325","DECAY_DATE":null,"SEMIMAJOR_AXIS":"6925.412","MEAN_ELEMENT_THEORY":"SGP4","LAUNCH_DATE":"2020-08-07","ARG_OF_PERICENTER":"85.1060","EPHEMERIS_TYPE":"0","REF_FRAME":"TEME","CLASSIFICATION_TYPE":"U","ECCENTRICITY":"0.00015140","TLE_LINE1":"1 46034U 20055H   21311.70278757  .00021706  00000-0  14724-2 0  9996","SITE":"AFETR"},{"TLE_LINE2":"2 46035  53.0531  33.1866 0001770  88.6461 271.4731 15.06365146 70292","MEAN_MOTION":"15.06365146","COUNTRY_CODE":"US","PERIAPSIS":"546.095","TIME_SYSTEM":"UTC","ELEMENT_SET_NO":"999","GP_ID":"189214241","NORAD_CAT_ID":"46035","RA_OF_ASC_NODE":"33.1866","OBJECT_NAME":"STARLINK-1558","FILE":"3207836","INCLINATION":"53.0531","MEAN_MOTION_DDOT":"0.0000000000000","CENTER_NAME":"EARTH","EPOCH":"2021-11-07T15:27:04.826304","BSTAR":"-0.00011900000000","OBJECT_TYPE":"PAYLOAD","APOAPSIS":"548.546","MEAN_ANOMALY":"271.4731","PERIOD":"95.594","REV_AT_EPOCH":"7029","RCS_SIZE":"LARGE","MEAN_MOTION_DOT":"-0.00002052","OBJECT_ID":"2020-055J","LAUNCH_DATE":"2020-08-07","EPHEMERIS_TYPE":"0","ARG_OF_PERICENTER":"88.6461","REF_FRAME":"TEME","CLASSIFICATION_TYPE":"U","DECAY_DATE":null,"SEMIMAJOR_AXIS":"6925.455","MEAN_ELEMENT_THEORY":"SGP4","TLE_LINE1":"1 46035U 20055J   21311.64380586 -.00002052  00000-0 -11900-3 0  9993","SITE":"AFETR","ECCENTRICITY":"0.00017700"},{"FILE":"3207387","OBJECT_NAME":"STARLINK-1560","INCLINATION":"53.0532","NORAD_CAT_ID":"46036","RA_OF_ASC_NODE":"33.5532","TIME_SYSTEM":"UTC","GP_ID":"189179141","ELEMENT_SET_NO":"999","PERIAPSIS":"546.244","MEAN_MOTION":"15.06362855","COUNTRY_CODE":"US","TLE_LINE2":"2 46036  53.0532  33.5532 0001565  85.2600 274.8567 15.06362855 70285","OBJECT_ID":"2020-055K","RCS_SIZE":"LARGE","MEAN_MOTION_DOT":"0.00016527","REV_AT_EPOCH":"7028","PERIOD":"95.594","OBJECT_TYPE":"PAYLOAD","APOAPSIS":"548.411","MEAN_ANOMALY":"274.8567","EPOCH":"2021-11-07T13:30:18.948384","BSTAR":"0.00112690000000","CENTER_NAME":"EARTH","MEAN_MOTION_DDOT":"0.0000000000000","MEAN_ELEMENT_THEORY":"SGP4","SEMIMAJOR_AXIS":"6925.462","DECAY_DATE":null,"CLASSIFICATION_TYPE":"U","REF_FRAME":"TEME","ARG_OF_PERICENTER":"85.2600","EPHEMERIS_TYPE":"0","LAUNCH_DATE":"2020-08-07","ECCENTRICITY":"0.00015650","SITE":"AFETR","TLE_LINE1":"1 46036U 20055K   21311.56271931  .00016527  00000-0  11269-2 0  9995"},{"ECCENTRICITY":"0.00013340","TLE_LINE1":"1 46037U 20055L   21311.62536881  .00005899  00000-0  41489-3 0  9999","SITE":"AFETR","SEMIMAJOR_AXIS":"6925.430","DECAY_DATE":null,"MEAN_ELEMENT_THEORY":"SGP4","EPHEMERIS_TYPE":"0","ARG_OF_PERICENTER":"89.4254","LAUNCH_DATE":"2020-08-07","CLASSIFICATION_TYPE":"U","REF_FRAME":"TEME","REV_AT_EPOCH":"7028","PERIOD":"95.594","OBJECT_ID":"2020-055L","RCS_SIZE":"LARGE","MEAN_MOTION_DOT":"0.00005899","BSTAR":"0.00041489000000","EPOCH":"2021-11-07T15:00:31.865184","MEAN_MOTION_DDOT":"0.0000000000000","CENTER_NAME":"EARTH","MEAN_ANOMALY":"270.6888","OBJECT_TYPE":"PAYLOAD","APOAPSIS":"548.219","NORAD_CAT_ID":"46037","RA_OF_ASC_NODE":"33.2793","TIME_SYSTEM":"UTC","GP_ID":"189213741","ELEMENT_SET_NO":"999","FILE":"3207836","OBJECT_NAME":"STARLINK-1565","INCLINATION":"53.0561","TLE_LINE2":"2 46037  53.0561  33.2793 0001334  89.4254 270.6888 15.06373514 70283","PERIAPSIS":"546.371","MEAN_MOTION":"15.06373514","COUNTRY_CODE":"US"},{"TIME_SYSTEM":"UTC","GP_ID":"189213991","ELEMENT_SET_NO":"999","NORAD_CAT_ID":"46038","RA_OF_ASC_NODE":"33.2158","FILE":"3207836","OBJECT_NAME":"STARLINK-1567","INCLINATION":"53.0549","TLE_LINE2":"2 46038  53.0549  33.2158 0001405  66.5809 293.5327 15.06363062 70285","MEAN_MOTION":"15.06363062","COUNTRY_CODE":"US","PERIAPSIS":"546.354","PERIOD":"95.594","REV_AT_EPOCH":"7028","RCS_SIZE":"LARGE","MEAN_MOTION_DOT":"0.00017108","OBJECT_ID":"2020-055M","CENTER_NAME":"EARTH","MEAN_MOTION_DDOT":"0.0000000000000","EPOCH":"2021-11-07T15:21:46.177920","BSTAR":"0.00116580000000","OBJECT_TYPE":"PAYLOAD","APOAPSIS":"548.300","MEAN_ANOMALY":"293.5327","DECAY_DATE":null,"SEMIMAJOR_AXIS":"6925.462","MEAN_ELEMENT_THEORY":"SGP4","LAUNCH_DATE":"2020-08-07","ARG_OF_PERICENTER":"66.5809","EPHEMERIS_TYPE":"0","REF_FRAME":"TEME","CLASSIFICATION_TYPE":"U","ECCENTRICITY":"0.00014050","TLE_LINE1":"1 46038U 20055M   21311.64011780  .00017108  00000-0  11658-2 0  9998","SITE":"AFETR"},{"TIME_SYSTEM":"UTC","ELEMENT_SET_NO":"999","GP_ID":"189214742","NORAD_CAT_ID":"46039","RA_OF_ASC_NODE":"32.8844","FILE":"3207836","OBJECT_NAME":"STARLINK-1569","INCLINATION":"53.0551","TLE_LINE2":"2 46039  53.0551  32.8844 0001243  78.8393 281.2736 15.06369336 70299","MEAN_MOTION":"15.06369336","COUNTRY_CODE":"US","PERIAPSIS":"546.447","PERIOD":"95.594","REV_AT_EPOCH":"7029","RCS_SIZE":"LARGE","MEAN_MOTION_DOT":"0.00012440","OBJECT_ID":"2020-055N","MEAN_MOTION_DDOT":"0.0000000000000","CENTER_NAME":"EARTH","BSTAR":"0.00085327000000","EPOCH":"2021-11-07T17:07:55.693056","MEAN_ANOMALY":"281.2736","OBJECT_TYPE":"PAYLOAD","APOAPSIS":"548.168","DECAY_DATE":null,"SEMIMAJOR_AXIS":"6925.443","MEAN_ELEMENT_THEORY":"SGP4","LAUNCH_DATE":"2020-08-07","EPHEMERIS_TYPE":"0","ARG_OF_PERICENTER":"78.8393","REF_FRAME":"TEME","CLASSIFICATION_TYPE":"U","ECCENTRICITY":"0.00012430","TLE_LINE1":"1 46039U 20055N   21311.71383904  .00012440  00000-0  85327-3 0  9996","SITE":"AFETR"},{"PERIOD":"95.595","REV_AT_EPOCH":"7022","RCS_SIZE":"LARGE","MEAN_MOTION_DOT":"0.00015679","OBJECT_ID":"2020-055P","MEAN_MOTION_DDOT":"0.0000000000000","CENTER_NAME":"EARTH","EPOCH":"2021-11-07T11:28:13.696320","BSTAR":"0.00107040000000","OBJECT_TYPE":"PAYLOAD","MEAN_ANOMALY":"276.9289","APOAPSIS":"548.525","TIME_SYSTEM":"UTC","ELEMENT_SET_NO":"999","GP_ID":"189179641","NORAD_CAT_ID":"46040","RA_OF_ASC_NODE":"33.9465","FILE":"3207387","OBJECT_NAME":"STARLINK-1576","INCLINATION":"53.0568","TLE_LINE2":"2 46040  53.0568  33.9465 0001695  83.1893 276.9289 15.06355233 70223","MEAN_MOTION":"15.06355233","COUNTRY_CODE":"US","PERIAPSIS":"546.177","ECCENTRICITY":"0.00016950","TLE_LINE1":"1 46040U 20055P   21311.47793630  .00015679  00000-0  10704-2 0  9995","SITE":"AFETR","DECAY_DATE":null,"SEMIMAJOR_AXIS":"6925.486","MEAN_ELEMENT_THEORY":"SGP4","LAUNCH_DATE":"2020-08-07","EPHEMERIS_TYPE":"0","ARG_OF_PERICENTER":"83.1893","REF_FRAME":"TEME","CLASSIFICATION_TYPE":"U"},{"SITE":"AFETR","TLE_LINE1":"1 46041U 20055Q   21311.87876283  .00017135  00000-0  11666-2 0  9993","ECCENTRICITY":"0.00013620","REF_FRAME":"TEME","CLASSIFICATION_TYPE":"U","LAUNCH_DATE":"2020-08-07","ARG_OF_PERICENTER":"84.4021","EPHEMERIS_TYPE":"0","MEAN_ELEMENT_THEORY":"SGP4","DECAY_DATE":null,"SEMIMAJOR_AXIS":"6925.365","APOAPSIS":"548.173","OBJECT_TYPE":"PAYLOAD","MEAN_ANOMALY":"275.7123","MEAN_MOTION_DDOT":"0.0000000000000","CENTER_NAME":"EARTH","BSTAR":"0.00116660000000","EPOCH":"2021-11-07T21:05:25.108512","MEAN_MOTION_DOT":"0.00017135","RCS_SIZE":"LARGE","OBJECT_ID":"2020-055Q","PERIOD":"95.592","REV_AT_EPOCH":"7029","COUNTRY_CODE":"US","MEAN_MOTION":"15.06394731","PERIAPSIS":"546.286","TLE_LINE2":"2 46041  53.0551  32.1445 0001362  84.4021 275.7123 15.06394731 70290","INCLINATION":"53.0551","FILE":"3207836","OBJECT_NAME":"STARLINK-1580","GP_ID":"189213241","ELEMENT_SET_NO":"999","TIME_SYSTEM":"UTC","RA_OF_ASC_NODE":"32.1445","NORAD_CAT_ID":"46041"},{"MEAN_ELEMENT_THEORY":"SGP4","DECAY_DATE":null,"SEMIMAJOR_AXIS":"6925.372","REF_FRAME":"TEME","CLASSIFICATION_TYPE":"U","LAUNCH_DATE":"2020-08-07","ARG_OF_PERICENTER":"73.1220","EPHEMERIS_TYPE":"0","ECCENTRICITY":"0.00013270","SITE":"AFETR","TLE_LINE1":"1 46042U 20055R   21311.72859023  .00037761  00000-0  25409-2 0  9998","INCLINATION":"53.0556","FILE":"3207836","OBJECT_NAME":"STARLINK-1581","GP_ID":"189213491","ELEMENT_SET_NO":"999","TIME_SYSTEM":"UTC","RA_OF_ASC_NODE":"32.8155","NORAD_CAT_ID":"46042","COUNTRY_CODE":"US","MEAN_MOTION":"15.06392490","PERIAPSIS":"546.318","TLE_LINE2":"2 46042  53.0556  32.8155 0001327  73.1220 286.9914 15.06392490 70267","MEAN_MOTION_DOT":"0.00037761","RCS_SIZE":"LARGE","OBJECT_ID":"2020-055R","PERIOD":"95.593","REV_AT_EPOCH":"7026","APOAPSIS":"548.156","OBJECT_TYPE":"PAYLOAD","MEAN_ANOMALY":"286.9914","CENTER_NAME":"EARTH","MEAN_MOTION_DDOT":"0.0000000000000","BSTAR":"0.00254090000000","EPOCH":"2021-11-07T17:29:10.195872"}];
